STARLINK-2022           
1 47643U 21012Z   24232.88443603  .00005537  00000+0  39028-3 0  9993
2 47643  53.0543  76.1041 0001213  77.5916 282.5209 15.06401482194314
